#aV2011 12  3  0  0   .00000000      96 DD+AD WGS84 FIT  NGA
## 1664 518400.00000000   900.00000000 55898  .0000000000000
+   31     1  2  3  4  5  6  7  8  9 10 11 12 13 14 15 16 17
+         18 19 20 21 22 23 25 26 27 28 29 30 31 32  0  0  0
+          0  0  0  0  0  0  0  0  0  0  0  0  0  0  0  0  0
+          0  0  0  0  0  0  0  0  0  0  0  0  0  0  0  0  0
+          0  0  0  0  0  0  0  0  0  0  0  0  0  0  0  0  0
++         0  0  0  0  0  0  0  0  0  0  0  0  0  0  0  0  0
++         0  0  0  0  0  0  0  0  0  0  0  0  0  0  0  0  0
++         0  0  0  0  0  0  0  0  0  0  0  0  0  0  0  0  0
++         0  0  0  0  0  0  0  0  0  0  0  0  0  0  0  0  0
++         0  0  0  0  0  0  0  0  0  0  0  0  0  0  0  0  0
%c cc cc ccc ccc cccc cccc cccc cccc ccccc ccccc ccccc ccccc
%c cc cc ccc ccc cccc cccc cccc cccc ccccc ccccc ccccc ccccc
%f  0.0000000  0.000000000  0.00000000000  0.000000000000000
%f  0.0000000  0.000000000  0.00000000000  0.000000000000000
%i    0    0    0    0      0      0      0      0         0
%i    0    0    0    0      0      0      0      0         0
/*      NGA, ST. LOUIS,MO.                                  
/*   EPHEMERIS COMPUTED FROM  3 DAYS OF DATA                
/* CCCCCCCCCCCCCCCCCCCCCCCCCCCCCCCCCCCCCCCCCCCCCCCCCCCCCCCCC
/* CCCCCCCCCCCCCCCCCCCCCCCCCCCCCCCCCCCCCCCCCCCCCCCCCCCCCCCCC
*  2011 12  3 10  0   .00000000                                                 
P  1   9964.935702 -20753.669213 -13255.333466    124.976434                    
V  1  14239.336180  -9215.412496  25171.581126       .179394                    
P  2 -22095.549431  12218.808801  -7282.561261    368.486973                    
V  2   4702.239154  -9080.287978 -29675.285444       .017475                    
P  3  13591.625014  -8344.167147  20757.679274    803.233551                    
V  3   9072.032313  26041.889794   4718.259442       .051638                    
P  4 -20552.528270    803.502039 -17220.120199     22.072085                    
V  4  15109.228358 -15204.293477 -18673.176171       .112677                    
P  5 -19853.409538   5559.434576  16789.502463   -253.104385                    
V  5 -19448.827737  -8968.720864 -19883.885469      -.048963                    
P  6  15433.796694  -3373.568130  21485.208852     10.688290                    
V  6   6344.013417  26308.497474   -168.556993       .046455                    
P  7  -3888.038530 -15437.011924  21237.018477     41.005348                    
V  7  21245.036548 -16556.609362  -8389.198051       .023176                    
P  8 -13738.858288  -7452.385490  21630.422577       .157868                    
V  8  22156.960889 -15648.025393   8150.330357       .000832                    
P  9 -12918.796022  20802.677209 -10862.228807    122.462851                    
V  9 -10850.836508   7234.938235  28166.345697       .026269                    
P 10 -24994.795998  -9602.146017      6.537478    -20.946920                    
V 10    771.838784  -2807.148081 -31206.116215      -.012482                    
P 11  11124.184401 -23441.574815  -5156.718797   -209.654877                    
V 11   7811.089158  -2208.651491  29286.859423      -.035610                    
P 12  -3336.076855  14566.160805 -21957.058331     38.383995                    
V 12 -26024.539724  -9887.702049  -2435.251753       .022588                    
P 13  -4814.537044 -25788.320468   3728.556311    238.261738                    
V 13   1562.337424  -5064.359297 -31931.350327      -.020254                    
P 14  13998.017098  12664.557167 -18566.507258    184.084302                    
V 14   1629.065838  23814.627828  17169.036887       .017050                    
P 15  -5809.137885  21783.537334  13894.405332    -97.694908                    
V 15  -6048.071519 -16880.070909  24138.402453       .009643                    
P 16  20562.606064  -3705.866184  16586.394659   -212.037358                    
V 16  18861.146102   9039.139750 -21093.458026      -.019322                    
P 17 -14288.061539 -14106.509761 -17356.829658    162.557751                    
V 17  -1643.709446 -22236.686565  19021.256864      -.020881                    
P 18  15722.861632  16868.518472  13828.453075    170.051409                    
V 18 -16740.382133  -3584.969021  23635.575394       .018227                    
P 19   9198.019150 -19239.134101  15562.523899   -211.251424                    
V 19   4054.926166  19687.857982  22255.166122      -.039599                    
P 20   2515.235195 -15829.026835 -21341.299136     57.273657                    
V 20  25693.274215   7780.543723  -2689.861500       .007634                    
P 21   9072.808457  13298.266227  21543.000779   -188.455604                    
V 21 -20665.135556  16556.490925  -2151.525308      -.024748                    
P 22  24492.583507  10363.885830   1355.188671    143.259231                    
V 22  -2730.850963   2925.243714  30905.600406      -.001151                    
P 23    203.996505 -25593.394243  -6325.625456    254.109614                    
V 23   4256.494725   7551.422970 -30635.790766      -.032828                    
P 25   8281.970956  16718.385434 -18938.137405     29.304401                    
V 25 -23067.832935  -6652.411906 -15946.309668       .008600                    
P 26 -12487.402019  10500.095096  20264.699446   -247.975017                    
V 26  -3640.195038 -26919.100809  11746.672135      -.137007                    
P 27 -17801.659072  19057.976244  -3013.554272    331.946589                    
V 27  -5158.797810   1272.362316  32183.252539       .039125                    
P 28 -22878.973350 -13037.487474   4911.871973     89.707241                    
V 28   5840.318068    276.547662  31155.964220       .034829                    
P 29   5565.802490  25839.219663   2876.595518    262.761258                    
V 29  -2202.645324   3907.041954 -31486.126400       .034184                    
P 30  25670.318497   1922.766148   6220.697554     33.490273                    
V 30   7438.155687   4792.780590 -30353.864481      -.110037                    
P 31  21396.904840  -4523.405600 -15018.319700    177.550829                    
V 31 -13969.286056  13420.992690 -23406.152789       .050137                    
P 32  11128.277282 -11282.587567 -21008.304059   -371.347698                    
V 32  24448.020439  12271.733762   6737.355803      -.059205                    
EOF
